[{"OBJECT_NAME":"YAOGAN-43 02D","OBJECT_ID":"2024-156D","EPOCH":"2026-03-09T13:08:17.964960","MEAN_MOTION":15.23237701,"ECCENTRICITY":0.000368,"INCLINATION":34.992,"RA_OF_ASC_NODE":104.6408,"ARG_OF_PERICENTER":78.2879,"MEAN_ANOMALY":281.8248,"EPHEMERIS_TYPE":0,"CLASSIFICATION_TYPE":"U","NORAD_CAT_ID":60948,"ELEMENT_SET_NO":999,"REV_AT_EPOCH":8424,"BSTAR":0.00047394,"MEAN_MOTION_DOT":0.0001148,"MEAN_MOTION_DDOT":0},{"OBJECT_NAME":"OBJECT M","OBJECT_ID":"2019-093M","EPOCH":"2026-03-09T22:23:03.457824","MEAN_MOTION":15.21921823,"ECCENTRICITY":0.00209816,"INCLINATION":97.7601,"RA_OF_ASC_NODE":172.1908,"ARG_OF_PERICENTER":299.2793,"MEAN_ANOMALY":60.6345,"EPHEMERIS_TYPE":0,"CLASSIFICATION_TYPE":"U","NORAD_CAT_ID":44890,"ELEMENT_SET_NO":999,"REV_AT_EPOCH":33917,"BSTAR":0.00037800273,"MEAN_MOTION_DOT":8.589e-5,"MEAN_MOTION_DDOT":0}]
